{"type": "FeatureCollection", "features": [{"type": "Feature", "properties": {"name": "Tunisie", "name_ar": "تونس", "bbox": [7.5219807, 30.230236, 11.5999351, 37.5407249]}, "geometry": {"type": "MultiPolygon", "coordinates": [[[[8.168964, 33.004969], [8.114245, 33.052689], [8.117256, 33.099813], [7.905653, 33.184487], [7.8321519, 33.1881161], [7.777753, 33.32364], [7.7492157, 33.3273523], [7.732558, 33.3747001], [7.7365763, 33.424659], [7.6338507, 33.5721128], [7.5964976, 33.6481032], [7.5891548, 33.6882598], [7.5647997, 33.7272138], [7.5621522, 33.7774447], [7.5254139, 33.7982968], [7.5472149, 33.8368395], [7.5219807, 33.9050755], [7.5414213, 33.9379804], [7.5399407, 33.975161], [7.5603873, 34.0146165], [7.5320533, 34.0702705], [7.5809593, 34.0863525], [7.5908403, 34.0957065], [7.5796153, 34.0988195], [7.6140533, 34.1136615], [7.6193443, 34.1398285], [7.6552051, 34.1974262], [7.7327893, 34.1698269], [7.8160423, 34.2135425], [7.8133433, 34.2433185], [7.8535436, 34.3558013], [7.856513, 34.405304], [7.9225427, 34.4157788], [7.9533403, 34.4473986], [8.0112311, 34.4580909], [8.0429768, 34.4933989], [8.0720181, 34.4969271], [8.0830585, 34.5158009], [8.1156194, 34.5123224], [8.1203401, 34.5241856], [8.1491148, 34.5336432], [8.1511962, 34.5463517], [8.1666653, 34.5526662], [8.1615273, 34.5691819], [8.1715051, 34.5644641], [8.1700245, 34.5742881], [8.2222398, 34.578022], [8.2043441, 34.5890456], [8.2110174, 34.6035296], [8.2501347, 34.6145499], [8.2413371, 34.6314836], [8.2738194, 34.6440175], [8.2807288, 34.6574152], [8.241389, 34.669722], [8.2406244, 34.6879095], [8.264657, 34.6923468], [8.2954877, 34.7314436], [8.3242071, 34.73281], [8.2941514, 34.7462621], [8.2837938, 34.7668911], [8.2836361, 34.8212922], [8.245209, 34.9210544], [8.2863429, 34.9451936], [8.3152683, 34.948092], [8.3086479, 34.9537492], [8.3156806, 35.0092064], [8.3589909, 35.1010192], [8.3998166, 35.1279222], [8.4226076, 35.1791645], [8.4765307, 35.239755], [8.4087682, 35.2449795], [8.3587763, 35.276237], [8.3335957, 35.2804499], [8.311548, 35.3150642], [8.3126931, 35.3722303], [8.3298592, 35.4065342], [8.3154611, 35.4142116], [8.3291297, 35.4218359], [8.3532695, 35.4631447], [8.3844046, 35.4667624], [8.3853632, 35.4874193], [8.3599665, 35.5257413], [8.3509337, 35.6114495], [8.3602929, 35.64651], [8.3560442, 35.6697677], [8.3078289, 35.6915548], [8.2642708, 35.7306553], [8.2585727, 35.7624462], [8.2732533, 35.8198118], [8.2707142, 35.8786451], [8.2534837, 35.8864685], [8.2715314, 35.907749], [8.2562535, 35.91371], [8.2629054, 35.9376194], [8.2904785, 35.9531496], [8.2969068, 36.0402359], [8.3210292, 36.0836941], [8.3460057, 36.0970341], [8.338532, 36.1378169], [8.3092696, 36.1612929], [8.3069711, 36.1743618], [8.327313, 36.1880097], [8.354671, 36.2323711], [8.3536234, 36.2546305], [8.3379153, 36.2645221], [8.3558229, 36.2877542], [8.3910564, 36.3049445], [8.3768373, 36.318445], [8.385356, 36.3337963], [8.3764511, 36.3500606], [8.4000974, 36.3737855], [8.393828, 36.393876], [8.4096565, 36.4118603], [8.406275, 36.423083], [8.3717816, 36.4283341], [8.3548679, 36.4461786], [8.3278621, 36.4323362], [8.2845182, 36.4460963], [8.2630872, 36.4385751], [8.2134151, 36.4466929], [8.195257, 36.4609434], [8.1697067, 36.4633836], [8.1548266, 36.4804207], [8.1536515, 36.4968636], [8.1771148, 36.5134761], [8.1953007, 36.5071931], [8.2564164, 36.5370519], [8.2914992, 36.5396172], [8.3199603, 36.5571393], [8.3261432, 36.5738211], [8.3877173, 36.5948385], [8.4178289, 36.6223942], [8.4492013, 36.6180711], [8.4598752, 36.6583448], [8.4513209, 36.6620791], [8.4701684, 36.667963], [8.4874501, 36.6973186], [8.4658183, 36.7251698], [8.46408, 36.7483577], [8.428918, 36.7487327], [8.4299298, 36.7595184], [8.4841468, 36.7794849], [8.5274218, 36.7825861], [8.5323099, 36.7742917], [8.5724828, 36.7731991], [8.5995956, 36.7987198], [8.6111146, 36.7909313], [8.6694472, 36.8173248], [8.6811291, 36.8389505], [8.6625231, 36.8520094], [8.6247557, 36.8551225], [8.6361949, 36.9088863], [8.653986, 36.9156879], [8.6420767, 36.9409263], [8.6525884, 36.9472794], [8.7410653, 36.9696989], [8.7558158, 36.9578576], [8.7602232, 36.967037], [8.7647053, 36.9532893], [8.7811057, 36.9529394], [8.8391378, 36.9769666], [8.9543641, 37.0621043], [8.9848111, 37.098336], [8.9783951, 37.1039869], [9.0261981, 37.1373837], [9.073708, 37.1563748], [9.1186501, 37.1604487], [9.2174238, 37.240976], [9.2235649, 37.2207589], [9.2347005, 37.2167943], [9.3308094, 37.2312082], [9.4084455, 37.2695006], [9.456302, 37.2630315], [9.5359532, 37.2998196], [9.5607593, 37.30587], [9.573537, 37.2945055], [9.5922083, 37.2972394], [9.6695039, 37.3407369], [9.7035211, 37.334227], [9.7558376, 37.347034], [9.7788572, 37.3284747], [9.8370533, 37.3386615], [9.8655013, 37.3319966], [9.8680928, 37.3037468], [9.8907816, 37.2783461], [9.8837389, 37.2752683], [9.8847024, 37.278356], [9.8791375, 37.2790721], [9.8760263, 37.2785793], [9.8830512, 37.274878], [9.8503036, 37.2610593], [9.8593059, 37.2572238], [9.8193041, 37.2447635], [9.8241435, 37.237178], [9.8135179, 37.2445465], [9.7772029, 37.2393768], [9.7804765, 37.2188227], [9.7705661, 37.2235116], [9.7676126, 37.2173653], [9.7761376, 37.2029236], [9.7858411, 37.2095388], [9.7824924, 37.1807887], [9.8133236, 37.1600306], [9.8067129, 37.1485585], [9.8127398, 37.1420505], [9.8611117, 37.1346438], [9.9127157, 37.1567366], [9.9265962, 37.1764098], [9.9393469, 37.2079072], [9.9337548, 37.223236], [9.8612568, 37.2322631], [9.8213444, 37.2254825], [9.8904083, 37.2751892], [9.902967, 37.2589857], [9.9764671, 37.2471683], [10.0680193, 37.2690494], [10.0869475, 37.2410031], [10.1490588, 37.2281508], [10.2175766, 37.185451], [10.2793775, 37.1816581], [10.2318755, 37.1500596], [10.2209077, 37.1544882], [10.2212285, 37.1690984], [10.1547594, 37.1664993], [10.1345896, 37.1414616], [10.1578843, 37.1251241], [10.1815693, 37.1291857], [10.1737475, 37.1212998], [10.1903571, 37.1113554], [10.2148697, 37.1123298], [10.2062525, 37.1409187], [10.2200834, 37.1526784], [10.2106915, 37.1408346], [10.2163217, 37.1111957], [10.2076056, 37.0964378], [10.2154614, 37.1108251], [10.1874558, 37.0928826], [10.2045266, 37.099926], [10.1793835, 37.073803], [10.1793731, 37.0392952], [10.2051359, 36.982289], [10.2391484, 36.9512647], [10.1805101, 36.9374571], [10.1828186, 36.9214455], [10.1915231, 36.9105787], [10.2549964, 36.8866816], [10.2848878, 36.9013092], [10.2558474, 36.9281638], [10.2521565, 36.9431568], [10.3172728, 36.9175855], [10.3220896, 36.8932067], [10.3547455, 36.8690492], [10.3242719, 36.8458135], [10.3270831, 36.8362218], [10.3148699, 36.8216976], [10.3085143, 36.825935], [10.3140944, 36.821211], [10.3104213, 36.8064514], [10.2854396, 36.8123616], [10.3071285, 36.8051012], [10.2838796, 36.7961919], [10.2863027, 36.7924065], [10.2922243, 36.789795], [10.2923341, 36.7884295], [10.2921292, 36.7896603], [10.2780189, 36.7960515], [10.2745717, 36.7961929], [10.2784587, 36.7951774], [10.2914657, 36.789208], [10.2850066, 36.7886508], [10.2910945, 36.7747211], [10.3260964, 36.7403406], [10.3908354, 36.7163918], [10.4406351, 36.721435], [10.5369418, 36.7575037], [10.5623763, 36.7974416], [10.5693381, 36.8431398], [10.58694, 36.8639533], [10.6124938, 36.8739024], [10.60915, 36.8821683], [10.6938064, 36.8782938], [10.7659047, 36.9102968], [10.7965352, 36.9365098], [10.874213, 36.9773092], [10.8988576, 37.010695], [10.9119012, 37.0071461], [10.9078575, 37.0503655], [10.9745983, 37.0497939], [11.0382908, 37.0787492], [11.0351674, 37.0887048], [11.0447933, 37.084326], [11.0748699, 37.0515393], [11.0584936, 37.0320052], [11.05935, 37.0096086], [11.0987376, 36.9565025], [11.1069239, 36.9032815], [11.1367316, 36.8747793], [11.1243824, 36.8447892], [11.1163734, 36.8330932], [11.0975265, 36.8359879], [11.033310975628169, 36.79654782120596], [10.972038, 36.7258647], [10.8678461, 36.5714731], [10.8085262, 36.4568353], [10.6946546, 36.4303913], [10.6165725, 36.3921515], [10.5870005, 36.4016666], [10.5672671, 36.3935749], [10.546953, 36.3690309], [10.5491898, 36.3739905], [10.544922, 36.3768371], [10.543127, 36.376034], [10.504303, 36.3088011], [10.468153699991433, 36.170298400000775], [10.4600895, 36.1710272], [10.467244, 36.1703806], [10.483762, 36.0544992], [10.5170089, 36.0286044], [10.5321906, 35.9763858], [10.5246149, 35.9759403], [10.5143221, 36.0063287], [10.4866954, 36.0001223], [10.468271, 36.0125538], [10.4556585, 36.0018353], [10.4947892, 35.9910762], [10.4780093, 35.9886108], [10.4732292, 35.9843184], [10.5041122, 35.9848753], [10.5000619, 35.9713089], [10.5323185, 35.9761694], [10.6020611, 35.892941], [10.6039848, 35.8758763], [10.6272396, 35.8452248], [10.6523796, 35.8265842], [10.64205, 35.827414], [10.6473069, 35.8142639], [10.686715, 35.7885136], [10.6837745, 35.7872267], [10.6810104, 35.780636], [10.68547607424491, 35.78745221517459], [10.7464588, 35.7651484], [10.8064565, 35.7850652], [10.8303129, 35.7799615], [10.8345858, 35.7879732], [10.8374478, 35.7783145], [10.8315048, 35.7798467], [10.8436267, 35.7683703], [10.822737, 35.7402306], [10.824751, 35.7166924], [10.8166698, 35.7203164], [10.833028394739667, 35.69751296904913], [10.8870688, 35.6743314], [10.9813901, 35.6545621], [11.0009988, 35.6377034], [11.0498596, 35.6242527], [11.0329277, 35.580668], [11.0359897, 35.5328788], [11.057553, 35.5089828], [11.0825846, 35.5078483], [11.0599962, 35.4945223], [11.0429492, 35.4421167], [11.0502867, 35.3909839], [11.0340326, 35.3828437], [11.0341013, 35.3467969], [11.0533531, 35.3109373], [11.1005582, 35.2668699], [11.1300841, 35.2470899], [11.1440182, 35.2396365], [11.1531983, 35.2372477], [11.1631566, 35.2331688], [11.1664311, 35.2307196], [11.1179098, 35.2227514], [11.1086964, 35.1940174], [11.0820962, 35.1693066], [11.0868398, 35.1605237], [11.0530426, 35.1547712], [11.0607263, 35.1466516], [11.0505365, 35.149952], [11.0385047, 35.1353555], [11.0207622, 35.094349], [11.0282757, 35.0756181], [11.0231849, 35.0441811], [11.0325162, 35.0436614], [11.032942, 35.0446737], [11.0345517, 35.0446473], [11.0349725, 35.0444435], [11.0356762, 35.0436461], [11.0355849, 35.0425847], [11.0191309, 35.0415922], [11.0062713, 35.0145073], [10.9249151, 34.9673584], [10.924643, 34.9012985], [10.9093434, 34.8710102], [10.9198152, 34.8662988], [10.9080453, 34.8704798], [10.883144, 34.8360483], [10.8659951, 34.827911], [10.8713767, 34.7991529], [10.8254067, 34.7842686], [10.7824637, 34.7477176], [10.7811509, 34.7221683], [10.7776448, 34.7302116], [10.7635599, 34.726774], [10.7761663, 34.7212795], [10.7685051, 34.7138729], [10.7673893, 34.7200249], [10.7610823, 34.7215265], [10.7650726, 34.7111384], [10.7536839, 34.7238546], [10.749428, 34.6845966], [10.726361, 34.6488083], [10.6631199, 34.6270888], [10.6504863, 34.6352557], [10.6046294, 34.5870436], [10.597967, 34.5458951], [10.6058854, 34.5554186], [10.5930183, 34.538974], [10.5734967, 34.529096], [10.5415194, 34.5179579], [10.5632767, 34.5289648], [10.5057387, 34.5237217], [10.4988954, 34.5118063], [10.4956839, 34.5200358], [10.4603103, 34.5079055], [10.4303152, 34.4904399], [10.3753793, 34.4212568], [10.3519176, 34.4279434], [10.3227954, 34.4102721], [10.3410522, 34.4078884], [10.3526946, 34.418426], [10.3502826, 34.4034178], [10.3240742, 34.3930395], [10.3321945, 34.3968062], [10.2926627, 34.4067393], [10.2861756, 34.4190447], [10.2688601, 34.3704946], [10.2406446, 34.3697558], [10.2102635, 34.3477008], [10.1912875, 34.3643351], [10.1701961, 34.3259741], [10.1522139, 34.3290335], [10.1401825, 34.3248862], [10.145956207736653, 34.31681982150931], [10.1222242, 34.3173965], [10.0930828, 34.2866694], [10.0489582, 34.2088609], [10.0451973, 34.2049089], [10.0436586, 34.2055649], [10.0516308, 34.2247728], [10.0433029, 34.2269002], [10.0406413, 34.2117588], [10.0291397, 34.2072296], [10.0430149, 34.2063756], [10.0434496, 34.1886037], [10.0424713, 34.1844997], [10.0412659, 34.1870801], [10.0392812, 34.1765592], [10.0336106, 34.1679968], [10.0343952, 34.181612], [10.0281467, 34.1763961], [10.0199214, 34.1878337], [10.015263, 34.1818699], [10.026453, 34.1514797], [10.0197492, 34.1189001], [10.0566892, 33.980865], [10.0858784, 33.93058], [10.1069333, 33.927774], [10.1130532, 33.924594], [10.0951508, 33.924408], [10.1092575, 33.9219417], [10.1045712, 33.9107161], [10.1204695, 33.8953138], [10.1168738, 33.8967931], [10.1117694, 33.893663], [10.1818677, 33.8243242], [10.2671537, 33.7682699], [10.281327, 33.7399651], [10.2929736, 33.7404207], [10.3528995, 33.6977026], [10.3578364, 33.6977785], [10.3622933, 33.7026663], [10.3638467, 33.7021377], [10.3597066, 33.6947839], [10.4002446, 33.6706836], [10.4803444, 33.6488099], [10.4519498, 33.6467055], [10.4388383, 33.6326161], [10.43673, 33.6353431], [10.4248369, 33.6355857], [10.4432431, 33.622217], [10.4697352, 33.6333829], [10.4929029, 33.6205113], [10.4870281, 33.6297305], [10.4940921, 33.6377876], [10.5680954, 33.6558319], [10.5543979, 33.6293162], [10.5871194, 33.6300836], [10.5944954, 33.6406414], [10.5692088, 33.638662], [10.5712112, 33.654177], [10.643323, 33.6745897], [10.6975823, 33.705491], [10.7235862, 33.7070425], [10.7451389, 33.677403], [10.7315477, 33.6479377], [10.7336584, 33.5991134], [10.7206491, 33.5755048], [10.6877845, 33.5579208], [10.6815959, 33.5431991], [10.6893095, 33.5398604], [10.6806511, 33.5342642], [10.7025378, 33.5194331], [10.6995376, 33.4912481], [10.7276543, 33.4897561], [10.7485235, 33.4724682], [10.7829742, 33.4719058], [10.8067437, 33.4950221], [10.928918, 33.5336039], [10.9485585, 33.5647902], [10.9269688, 33.5994513], [10.9117249, 33.6069185], [10.9215416, 33.6197941], [10.9456503, 33.6263078], [10.9458458, 33.6278633], [10.9405347, 33.6326199], [10.935208, 33.6401198], [10.9272593, 33.6549437], [10.945945, 33.628137], [10.9728356, 33.6222295], [10.9932795, 33.6252588], [10.9885574, 33.6388375], [11.0049335, 33.638534], [10.991365386885544, 33.64900034768604], [10.9975121, 33.649859], [11.0674443, 33.607854], [11.1158273, 33.5342993], [11.1178513, 33.5022955], [11.1313879, 33.4796779], [11.1199539, 33.4954283], [11.1120112, 33.490693], [11.1205427, 33.4817698], [11.1121151, 33.4702209], [11.1061153, 33.4757198], [11.0925134, 33.4355773], [11.1101709, 33.3975797], [11.112040145351298, 33.40709621139725], [11.1380924, 33.3867905], [11.130027513380146, 33.37872384183172], [11.1177564, 33.3896936], [11.122579, 33.3742218], [11.0958287, 33.359773], [11.1163009, 33.3575141], [11.1352764, 33.3701912], [11.168148612610823, 33.346966422453605], [11.174916, 33.3294525], [11.2941546, 33.2778587], [11.1802964, 33.3144351], [11.1291469, 33.3153886], [11.117098, 33.2851032], [11.159454, 33.2524586], [11.1747587, 33.2082215], [11.2631872, 33.206069], [11.3704008, 33.1801726], [11.3911205, 33.1891563], [11.4173825, 33.1772129], [11.4452437, 33.17911], [11.4423405, 33.1956137], [11.3268541, 33.2668278], [11.4828891, 33.1824079], [11.5615288, 33.166774], [11.5605019, 33.1400617], [11.5269931, 33.0783251], [11.519662, 33.0123589], [11.5277301, 32.9861926], [11.4955006, 32.917861], [11.50138, 32.8302943], [11.4875398, 32.7624378], [11.4942561, 32.6957214], [11.4778624, 32.6559133], [11.4903079, 32.6464102], [11.5048347, 32.6065801], [11.5516768, 32.5807643], [11.5999351, 32.5191775], [11.5949999, 32.4544524], [11.5489302, 32.4086497], [11.029167, 32.199722], [10.8614297, 32.1052972], [10.860977, 32.0856394], [10.7951405, 31.9981439], [10.7472512, 31.9853154], [10.7222897, 31.9676671], [10.6581517, 31.9777028], [10.6406208, 31.9678188], [10.6475945, 31.9662533], [10.6393763, 31.9569506], [10.6344195, 31.9611197], [10.6380459, 31.9330617], [10.6302782, 31.939162], [10.6246777, 31.9284908], [10.6312438, 31.9284726], [10.61264, 31.916343], [10.6238624, 31.9161427], [10.613169, 31.9092415], [10.6275027, 31.8999695], [10.6349485, 31.8792545], [10.6181042, 31.8500597], [10.5631511, 31.7971503], [10.5615847, 31.7794402], [10.5268448, 31.7408347], [10.5082624, 31.7427325], [10.4989069, 31.754155], [10.4691236, 31.7319655], [10.3861468, 31.7404697], [10.3118174, 31.7030711], [10.2762621, 31.6723962], [10.2123397, 31.5660331], [10.1339119, 31.4787471], [10.2037123, 31.2837833], [10.2457694, 31.1978681], [10.2621416, 31.1869465], [10.2569274, 31.1691756], [10.2656821, 31.121813], [10.294135, 31.09126], [10.2751449, 31.0408067], [10.284715, 30.9550392], [10.3055934, 30.8949947], [10.2720765, 30.8005077], [10.2190116, 30.704341], [10.2018992, 30.6935382], [10.0696019, 30.5083647], [10.0171164, 30.4792434], [9.9441496, 30.3834237], [9.9080363, 30.3562462], [9.8775021, 30.3369323], [9.8317543, 30.3372471], [9.7293154, 30.3004607], [9.6079937, 30.2423447], [9.558453, 30.230236], [9.1974832, 31.6362683], [9.09846, 31.999438], [9.065308, 32.087376], [8.35683, 32.502602], [8.322605, 32.823472], [8.247183, 32.924407], [8.168964, 33.004969]], [[10.9209281, 35.6082179], [10.9070924, 35.5931639], [10.9338483, 35.5770825], [10.9302623, 35.5614486], [10.9519064, 35.537431], [10.9947723, 35.5442243], [10.9907992, 35.5517761], [11.0001599, 35.5546629], [10.9824633, 35.589328], [10.9844438, 35.6128103], [10.9372723, 35.6239503], [10.9209281, 35.6082179]], [[10.6114932, 35.4917712], [10.5834911, 35.5023503], [10.5604757, 35.4975782], [10.5507541, 35.4877793], [10.5577786, 35.4745528], [10.5457195, 35.4804391], [10.5512815, 35.4732642], [10.5428066, 35.4781061], [10.5402053, 35.4704721], [10.5277271, 35.4848951], [10.4999493, 35.4815716], [10.4958379, 35.6022881], [10.4667199, 35.6358835], [10.4095157, 35.6383751], [10.358704, 35.6175852], [10.3315815, 35.6175852], [10.3159124, 35.5852155], [10.3212165, 35.5941296], [10.3305076, 35.5948973], [10.3269886, 35.573206], [10.314865, 35.5801172], [10.3224181, 35.569471], [10.3086637, 35.571548], [10.2929138, 35.5515089], [10.2943566, 35.5397138], [10.3076603, 35.5341612], [10.3011587, 35.5264079], [10.3106215, 35.5295687], [10.3362634, 35.5022176], [10.3620809, 35.4929865], [10.3711531, 35.4708468], [10.3894565, 35.4937013], [10.376539, 35.4925483], [10.392482, 35.4983658], [10.402889, 35.4898403], [10.4230085, 35.497174], [10.4510751, 35.4819215], [10.4622331, 35.433909], [10.4769316, 35.4391539], [10.4853216, 35.4338915], [10.4762021, 35.4306221], [10.4781118, 35.4199735], [10.4916087, 35.4087115], [10.5264559, 35.3997392], [10.542871, 35.4090263], [10.5662809, 35.3980886], [10.5715701, 35.4485697], [10.6123612, 35.4656548], [10.6114932, 35.4917712]], [[10.3213119, 35.9173288], [10.2922582, 35.9160428], [10.2810144, 35.8988714], [10.2079296, 35.8487611], [10.1953554, 35.8240246], [10.2441931, 35.8077207], [10.3074728, 35.8071539], [10.3515897, 35.8635163], [10.3454099, 35.8903613], [10.3213119, 35.9173288]], [[10.213221, 36.78076], [10.250043, 36.78699], [10.264022, 36.77222], [10.270395, 36.80083], [10.2599792, 36.8085133], [10.2239401, 36.8028905], [10.2057977, 36.7785269], [10.213221, 36.78076]], [[10.126511, 36.7844481], [10.1178919, 36.756374], [10.1765578, 36.7238278], [10.1821011, 36.7329554], [10.1587946, 36.790487], [10.126511, 36.7844481]], [[9.5886359, 37.1600393], [9.594172, 37.1456391], [9.6214862, 37.1271678], [9.6704097, 37.1428886], [9.6978326, 37.140836], [9.7003217, 37.1275613], [9.7193332, 37.1191095], [9.7428508, 37.1297511], [9.7572702, 37.1695332], [9.6800118, 37.1844075], [9.6545094, 37.2021502], [9.6369999, 37.1967492], [9.6346396, 37.1845101], [9.6145552, 37.1847494], [9.6144694, 37.1673103], [9.6055016, 37.1738896], [9.5886359, 37.1600393]]], [[[11.3385993, 34.7556415], [11.3084121, 34.7443162], [11.3054866, 34.7484803], [11.3148519, 34.7582935], [11.3385993, 34.7556415]]], [[[11.3303594, 34.815025], [11.3124215, 34.8171837], [11.3053577, 34.8295599], [11.3352871, 34.8153883], [11.3303594, 34.815025]]], [[[11.1494044, 34.7044959], [11.1816699, 34.742478], [11.1702439, 34.7623947], [11.1980269, 34.7409507], [11.225547, 34.7454986], [11.2324437, 34.7660007], [11.216102, 34.7842659], [11.2478422, 34.7912712], [11.2410156, 34.8071791], [11.2525751, 34.8028868], [11.2464712, 34.830909], [11.2581147, 34.8306], [11.2787762, 34.8026864], [11.2761817, 34.8192918], [11.3178895, 34.8012222], [11.2864054, 34.804649], [11.2952988, 34.7780319], [11.2714939, 34.7780447], [11.3044488, 34.7425467], [11.2972782, 34.7236869], [11.2889016, 34.7329839], [11.263123, 34.7205034], [11.2501203, 34.7237173], [11.2481175, 34.7109053], [11.2029599, 34.7026529], [11.124911663089577, 34.663304653742316], [11.1217954, 34.6793604], [11.1324957, 34.6831751], [11.1338205, 34.6998845], [11.1494044, 34.7044959]]], [[[10.9926113, 34.672494], [11.0885814, 34.6736805], [11.1247973, 34.663118], [11.0473591, 34.6205524], [11.047800188270879, 34.61309655382389], [10.9664405, 34.6566953], [10.9926113, 34.672494]]], [[[10.8886867, 33.6349163], [10.8736254, 33.6385836], [10.8688953, 33.6538609], [10.8769824, 33.6906881], [10.8300293, 33.7368129], [10.7907619, 33.7220537], [10.789807, 33.6968229], [10.7803978, 33.7037271], [10.760997774780487, 33.69945208483944], [10.741056592696856, 33.716118771667766], [10.7275067, 33.763634], [10.7493669, 33.798161], [10.7442671, 33.8882675], [10.7930562, 33.9029898], [10.8582397, 33.8902005], [10.8756619, 33.8776926], [10.9347999, 33.8779362], [10.9318038, 33.8960494], [10.8923061, 33.9150796], [10.9294601, 33.8983429], [11.018997, 33.8316026], [11.0559719, 33.8251219], [11.0602569, 33.7823574], [10.9974005, 33.7519588], [10.984593160522854, 33.694463160237085], [10.97386092785983, 33.68281292019523], [10.966744, 33.6806522], [10.9671271, 33.7275583], [10.9555502, 33.7254638], [10.939687, 33.6942005], [10.9159382, 33.6783646], [10.9261825, 33.6560636], [10.9152693, 33.679769], [10.9001261, 33.6758524], [10.8886867, 33.6349163]]], [[[9.8098679, 37.233782], [9.7989369, 37.2179289], [9.7836619, 37.2162326], [9.7996254, 37.2374483], [9.8098679, 37.233782]]], [[[8.9407827, 37.5367402], [8.9476641, 37.5407249], [8.9586517, 37.5272214], [8.9533876, 37.5177237], [8.9382595, 37.5242455], [8.9122294, 37.5136941], [8.8985942, 37.5190551], [8.9407827, 37.5367402]]]]}}]}